[
    {
        "Altitude(m)": 610405.2993640582,
        "Argument of Periapsis(deg)": 0.0,
        "Eccentricity": 0.0,
        "Inclination(deg)": 60.0,
        "Latitude(deg)": 52.11120628154956,
        "Longitude(deg)": -12.522700568539792,
        "Mean Anomaly(deg)": -245.4545,
        "RAAN(deg)": 315.0,
        "Satellite Name": "Test1 1393",
        "Satellite Number": 1393,
        "Semi-Major Axis(m)": 6980739.136638005,
        "Time(s)": 0
    },
    {
        "Altitude(m)": 610321.8727226442,
        "Argument of Periapsis(deg)": 0.00010418945913296404,
        "Eccentricity": 0.0,
        "Inclination(deg)": 60.0,
        "Latitude(deg)": 51.745922501937535,
        "Longitude(deg)": -11.753806291217906,
        "Mean Anomaly(deg)": -244.83439385453815,
        "RAAN(deg)": 314.99957995086027,
        "Satellite Name": "Test1 1393",
        "Satellite Number": 1393,
        "Semi-Major Axis(m)": 6980739.136638005,
        "Time(s)": 10
    },
    {
        "Altitude(m)": 610237.0819309067,
        "Argument of Periapsis(deg)": 0.0002083789182659281,
        "Eccentricity": 0.0,
        "Inclination(deg)": 60.0,
        "Latitude(deg)": 51.37511963679857,
        "Longitude(deg)": -10.997964492685346,
        "Mean Anomaly(deg)": -244.21428770907633,
        "RAAN(deg)": 314.9991599017205,
        "Satellite Name": "Test1 1393",
        "Satellite Number": 1393,
        "Semi-Major Axis(m)": 6980739.136638005,
        "Time(s)": 20
    },
    {
        "Altitude(m)": 610150.9771694838,
        "Argument of Periapsis(deg)": 0.00031256837739889213,
        "Eccentricity": 0.0,
        "Inclination(deg)": 60.0,
        "Latitude(deg)": 50.99895627031497,
        "Longitude(deg)": -10.254982048083532,
        "Mean Anomaly(deg)": -243.59418156361448,
        "RAAN(deg)": 314.9987398525808,
        "Satellite Name": "Test1 1393",
        "Satellite Number": 1393,
        "Semi-Major Axis(m)": 6980739.136638005,
        "Time(s)": 30
    },
    {
        "Altitude(m)": 610063.6094815272,
        "Argument of Periapsis(deg)": 0.0004167578365318562,
        "Eccentricity": 0.0,
        "Inclination(deg)": 60.0,
        "Latitude(deg)": 50.617587232785645,
        "Longitude(deg)": -9.524658130633663,
        "Mean Anomaly(deg)": -242.9740754181527,
        "RAAN(deg)": 314.99831980344106,
        "Satellite Name": "Test1 1393",
        "Satellite Number": 1393,
        "Semi-Major Axis(m)": 6980739.136638005,
        "Time(s)": 40
    },
    {
        "Altitude(m)": 609975.030748065,
        "Argument of Periapsis(deg)": 0.0005209472956648203,
        "Eccentricity": 0.0,
        "Inclination(deg)": 60.0,
        "Latitude(deg)": 50.23116357548901,
        "Longitude(deg)": -8.80678627027416,
        "Mean Anomaly(deg)": -242.35396927269088,
        "RAAN(deg)": 314.9978997543013,
        "Satellite Name": "Test1 1393",
        "Satellite Number": 1393,
        "Semi-Major Axis(m)": 6980739.136638005,
        "Time(s)": 50
    },
    {
        "Altitude(m)": 609885.293662959,
        "Argument of Periapsis(deg)": 0.0006251367547977843,
        "Eccentricity": 0.0,
        "Inclination(deg)": 60.0,
        "Latitude(deg)": 49.83983256021071,
        "Longitude(deg)": -8.101154828647866,
        "Mean Anomaly(deg)": -241.733863127229,
        "RAAN(deg)": 314.99747970516154,
        "Satellite Name": "Test1 1393",
        "Satellite Number": 1393,
        "Semi-Major Axis(m)": 6980739.136638005,
        "Time(s)": 60
    },
    {
        "Altitude(m)": 609794.4517074081,
        "Argument of Periapsis(deg)": 0.0007293262139307483,
        "Eccentricity": 0.0,
        "Inclination(deg)": 60.0,
        "Latitude(deg)": 49.44373766200207,
        "Longitude(deg)": -7.407547404830642,
        "Mean Anomaly(deg)": -241.11375698176724,
        "RAAN(deg)": 314.9970596560218,
        "Satellite Name": "Test1 1393",
        "Satellite Number": 1393,
        "Semi-Major Axis(m)": 6980739.136638005,
        "Time(s)": 70
    },
    {
        "Altitude(m)": 609702.5591240491,
        "Argument of Periapsis(deg)": 0.0008335156730637124,
        "Eccentricity": 0.0,
        "Inclination(deg)": 60.0,
        "Latitude(deg)": 49.04301858381001,
        "Longitude(deg)": -6.725744686612519,
        "Mean Anomaly(deg)": -240.49365083630533,
        "RAAN(deg)": 314.99663960688207,
        "Satellite Name": "Test1 1393",
        "Satellite Number": 1393,
        "Semi-Major Axis(m)": 6980739.136638005,
        "Time(s)": 80
    },
    {
        "Altitude(m)": 609609.6708906839,
        "Argument of Periapsis(deg)": 0.0009377051321966765,
        "Eccentricity": 0.0,
        "Inclination(deg)": 60.0,
        "Latitude(deg)": 48.6378112817023,
        "Longitude(deg)": -6.055524723854891,
        "Mean Anomaly(deg)": -239.87354469084352,
        "RAAN(deg)": 314.99621955774234,
        "Satellite Name": "Test1 1393",
        "Satellite Number": 1393,
        "Semi-Major Axis(m)": 6980739.136638005,
        "Time(s)": 90
    },
    {
        "Altitude(m)": 609515.8426935842,
        "Argument of Periapsis(deg)": 0.0010418945913296407,
        "Eccentricity": 0.0,
        "Inclination(deg)": 60.0,
        "Latitude(deg)": 48.22824799948341,
        "Longitude(deg)": -5.396663139320931,
        "Mean Anomaly(deg)": -239.25343854538167,
        "RAAN(deg)": 314.99579950860254,
        "Satellite Name": "Test1 1393",
        "Satellite Number": 1393,
        "Semi-Major Axis(m)": 6980739.136638005,
        "Time(s)": 100
    },
    {
        "Altitude(m)": 609421.130900436,
        "Argument of Periapsis(deg)": 0.0011460840504626045,
        "Eccentricity": 0.0,
        "Inclination(deg)": 60.0,
        "Latitude(deg)": 47.81445731157403,
        "Longitude(deg)": -4.748934792572466,
        "Mean Anomaly(deg)": -238.63333239991985,
        "RAAN(deg)": 314.99537945946287,
        "Satellite Name": "Test1 1393",
        "Satellite Number": 1393,
        "Semi-Major Axis(m)": 6980739.136638005,
        "Time(s)": 110
    },
    {
        "Altitude(m)": 609325.5925329266,
        "Argument of Periapsis(deg)": 0.0012502735095955685,
        "Eccentricity": 0.0,
        "Inclination(deg)": 60.0,
        "Latitude(deg)": 47.39656417311451,
        "Longitude(deg)": -4.112113874038745,
        "Mean Anomaly(deg)": -238.013226254458,
        "RAAN(deg)": 314.99495941032313,
        "Satellite Name": "Test1 1393",
        "Satellite Number": 1393,
        "Semi-Major Axis(m)": 6980739.136638005,
        "Time(s)": 120
    },
    {
        "Altitude(m)": 609229.2852389575,
        "Argument of Periapsis(deg)": 0.0013544629687285324,
        "Eccentricity": 0.0,
        "Inclination(deg)": 60.0,
        "Latitude(deg)": 46.97468997632381,
        "Longitude(deg)": -3.485973945073436,
        "Mean Anomaly(deg)": -237.39312010899621,
        "RAAN(deg)": 314.99453936118334,
        "Satellite Name": "Test1 1393",
        "Satellite Number": 1393,
        "Semi-Major Axis(m)": 6980739.136638005,
        "Time(s)": 130
    },
    {
        "Altitude(m)": 609132.2672645457,
        "Argument of Periapsis(deg)": 0.0014586524278614966,
        "Eccentricity": 0.0,
        "Inclination(deg)": 60.0,
        "Latitude(deg)": 46.54895261221663,
        "Longitude(deg)": -2.8702894398480816,
        "Mean Anomaly(deg)": -236.7730139635344,
        "RAAN(deg)": 314.9941193120436,
        "Satellite Name": "Test1 1393",
        "Satellite Number": 1393,
        "Semi-Major Axis(m)": 6980739.136638005,
        "Time(s)": 140
    },
    {
        "Altitude(m)": 609034.5974253645,
        "Argument of Periapsis(deg)": 0.0015628418869944607,
        "Eccentricity": 0.0,
        "Inclination(deg)": 60.0,
        "Latitude(deg)": 46.119466536866874,
        "Longitude(deg)": -2.2648356063277895,
        "Mean Anomaly(deg)": -236.15290781807255,
        "RAAN(deg)": 314.9936992629039,
        "Satellite Name": "Test1 1393",
        "Satellite Number": 1393,
        "Semi-Major Axis(m)": 6980739.136638005,
        "Time(s)": 150
    },
    {
        "Altitude(m)": 608936.3350779931,
        "Argument of Periapsis(deg)": 0.0016670313461274247,
        "Eccentricity": 0.0,
        "Inclination(deg)": 60.0,
        "Latitude(deg)": 45.686342841465546,
        "Longitude(deg)": -1.6693884021615553,
        "Mean Anomaly(deg)": -235.53280167261076,
        "RAAN(deg)": 314.99327921376414,
        "Satellite Name": "Test1 1393",
        "Satellite Number": 1393,
        "Semi-Major Axis(m)": 6980739.136638005,
        "Time(s)": 160
    },
    {
        "Altitude(m)": 608837.5400908629,
        "Argument of Periapsis(deg)": 0.0017712208052603888,
        "Eccentricity": 0.0,
        "Inclination(deg)": 60.0,
        "Latitude(deg)": 45.249689325486656,
        "Longitude(deg)": -1.0837258612713363,
        "Mean Anomaly(deg)": -234.9126955271489,
        "RAAN(deg)": 314.9928591646244,
        "Satellite Name": "Test1 1393",
        "Satellite Number": 1393,
        "Semi-Major Axis(m)": 6980739.136638005,
        "Time(s)": 170
    },
    {
        "Altitude(m)": 608738.2728148798,
        "Argument of Periapsis(deg)": 0.001875410264393353,
        "Eccentricity": 0.0,
        "Inclination(deg)": 60.0,
        "Latitude(deg)": 44.809610572348994,
        "Longitude(deg)": -0.5076279082356112,
        "Mean Anomaly(deg)": -234.292589381687,
        "RAAN(deg)": 314.9924391154846,
        "Satellite Name": "Test1 1393",
        "Satellite Number": 1393,
        "Semi-Major Axis(m)": 6980739.136638005,
        "Time(s)": 180
    },
    {
        "Altitude(m)": 608638.5940538269,
        "Argument of Periapsis(deg)": 0.0019795997235263173,
        "Eccentricity": 0.0,
        "Inclination(deg)": 60.0,
        "Latitude(deg)": 44.366208027010224,
        "Longitude(deg)": 0.05912386390856952,
        "Mean Anomaly(deg)": -233.67248323622525,
        "RAAN(deg)": 314.99201906634494,
        "Satellite Name": "Test1 1393",
        "Satellite Number": 1393,
        "Semi-Major Axis(m)": 6980739.136638005,
        "Time(s)": 190
    }
]